STARLINK-31050          
1 58546U 23192R   26153.84768739 -.00000583  00000+0 -61088-5 0  9999
2 58546  53.1620  26.4659 0001325 101.2394 258.8757 15.34390328139036
STARLINK-31063          
1 58547U 23192S   26153.81534255  .00000179  00000+0  18178-4 0  9991
2 58547  53.1611  16.9993 0001546  82.1222 277.9954 15.30193295139169
STARLINK-31016          
1 58548U 23192T   26153.82897856 -.00000652  00000+0 -98732-5 0  9995
2 58548  53.1623  27.0119 0001469  69.2770 290.8389 15.30188524139024
STARLINK-31053          
1 58549U 23192U   26153.83506812  .00003650  00000+0  11914-3 0  9990
2 58549  53.1588  26.3900 0001244  52.6449 307.4667 15.34394418139035
STARLINK-31056          
1 58550U 23192V   26153.83214265  .00002548  00000+0  98148-4 0  9990
2 58550  53.1605  27.0784 0001097  82.4735 277.6390 15.30196040139027
STARLINK-30999          
1 58551U 23192W   26153.79222478  .00000784  00000+0  38588-4 0  9993
2 58551  53.1604  17.4803 0001064 105.0784 255.0334 15.30194068139152
STARLINK-31046          
1 58552U 23192X   26153.84979223  .00000737  00000+0  32957-4 0  9999
2 58552  53.1609  26.4774 0001569 102.3028 257.8150 15.34390588139038
HONGHU 2                
1 58555U 23193C   26155.24806145  .00470800  00000+0  14624-1 0  9991
2 58555  97.2793 145.8703 0040045 320.3287  39.5027 15.30679401100039
YAOGAN-39 05A           
1 58557U 23194A   26155.25136378  .00008372  00000+0  34573-3 0  9997
2 58557  34.9994 138.7345 0006466 208.0718 151.9648 15.23269500138389
YAOGAN-39 05B           
1 58558U 23194B   26155.28358771  .00004653  00000+0  22794-3 0  9994
2 58558  34.9907 161.6819 0010452 206.4977 153.5202 15.17523404138130
YAOGAN-39 05C           
1 58559U 23194C   26155.28745323  .00004791  00000+0  23464-3 0  9996
2 58559  34.9905 161.6787 0013498 282.3986  77.5216 15.17493648138168
ALISIO-1                
1 58562U 23185M   26155.25928705  .00004084  00000+0  21028-3 0  9993
2 58562  97.5369 228.6820 0006333  16.0760 344.0673 15.16966541136595
QPS-SAR-5 (TSUKUYOMI-I) 
1 58578U 23196A   26155.24725649  .00014236  00000+0  60922-3 0  9999
2 58578  42.0103  89.5757 0026131 198.9078 161.0788 15.22286145136277
YAOGAN-41               
1 58582U 23197A   26155.30427919 -.00000351  00000+0  00000+0 0  9992
2 58582   3.1526 312.9327 0014055 188.5145 343.9327  1.00265957  9196
ARKTIKA-M 2             
1 58584U 23198A   26152.80817955  .00000145  00000+0  00000+0 0  9990
2 58584  63.2208 156.0807 6898127 267.4735  18.7853  2.00592153 18014
STARLINK-31044          
1 58589U 23200A   26151.96398770  .00000671  00000+0  33942-4 0  9994
2 58589  43.0011  58.7965 0001497 280.2233  79.8450 15.27557839136349
STARLINK-31062          
1 58590U 23200B   26152.91730311  .00002131  00000+0  86958-4 0  9991
2 58590  43.0058  56.4856 0001333 274.9658  85.1042 15.27572043136459
STARLINK-31096          
1 58592U 23200D   26152.13940272  .00066575  00000+0  20560-2 0  9993
2 58592  42.9979  57.5317 0012125 212.7786 147.2316 15.32610536136379
STARLINK-31094          
1 58593U 23200E   26152.13315386  .00000489  00000+0  27288-4 0  9994
2 58593  43.0041  57.5108 0001180 262.5391  97.5327 15.27580553136372
STARLINK-31075          
1 58594U 23200F   26152.76646438  .00000553  00000+0  29644-4 0  9999
2 58594  43.0011  53.6556 0001322 298.5664  61.5054 15.27571445136473
STARLINK-30857          
1 58595U 23200G   26152.99089563 -.00007401  00000+0 -25987-3 0  9991
2 58595  43.0041  52.7648 0001804 282.9586  77.1064 15.27554912136502
STARLINK-31059          
1 58596U 23200H   26152.72826651  .00002366  00000+0  95462-4 0  9999
2 58596  42.9981 257.5237 0000411 231.3271 128.7544 15.27574557138308
STARLINK-31087          
1 58597U 23200J   26153.94727602  .00001673  00000+0  70327-4 0  9994
2 58597  43.0040  47.0361 0002414 195.9041 164.1735 15.27576440136545
STARLINK-31079          
1 58598U 23200K   26155.00002315  .00102494  00000+0  95542-3 0  9999
2 58598  42.9773 355.5919 0034864 267.4835  33.8414 15.65494502  5959
STARLINK-31052          
1 58600U 23200M   26152.97033436  .00003797  00000+0  14752-3 0  9994
2 58600  43.0090  52.6102 0001760 270.4305  89.6345 15.27565043136506
STARLINK-31074          
1 58601U 23200N   26152.97418655  .00003816  00000+0  14819-3 0  9991
2 58601  43.0081  52.6405 0001353 250.8761 109.1944 15.27568555136503
STARLINK-31071          
1 58602U 23200P   26153.58261442  .00003611  00000+0  14065-3 0  9996
2 58602  42.9983 249.2453 0001136 187.6242 172.4592 15.27583337138475
STARLINK-31080          
1 58603U 23200Q   26152.12801121  .00001655  00000+0  69640-4 0  9996
2 58603  43.0056  57.4595 0001110 263.8258  96.2467 15.27580033136181
STARLINK-31088          
1 58604U 23200R   26152.13057898  .00003071  00000+0  12104-3 0  9998
2 58604  43.0036  57.4709 0001610 274.7965  85.2703 15.27588731136373
STARLINK-31038          
1 58605U 23200S   26152.94694890  .00085727  00000+0  25802-2 0  9993
2 58605  43.0002  51.5669 0007645 219.1865 140.8436 15.33359360136511
