OBJECT_NAME,OBJECT_ID,EPOCH,MEAN_MOTION,ECCENTRICITY,INCLINATION,RA_OF_ASC_NODE,ARG_OF_PERICENTER,MEAN_ANOMALY,EPHEMERIS_TYPE,CLASSIFICATION_TYPE,NORAD_CAT_ID,ELEMENT_SET_NO,REV_AT_EPOCH,BSTAR,MEAN_MOTION_DOT,MEAN_MOTION_DDOT
STARLINK-31050,2023-192R,2026-06-02T20:20:40.190496,15.34390328,.00013253,53.1620,26.4659,101.2394,258.8757,0,U,58546,999,13903,-.6108778E-5,-.583E-5,0
STARLINK-31063,2023-192S,2026-06-02T19:34:05.596320,15.30193295,.00015462,53.1611,16.9993,82.1222,277.9954,0,U,58547,999,13916,.18178101E-4,.179E-5,0
STARLINK-31016,2023-192T,2026-06-02T19:53:43.747584,15.30188524,.00014694,53.1623,27.0119,69.2770,290.8389,0,U,58548,999,13902,-.9873244E-5,-.652E-5,0
STARLINK-31053,2023-192U,2026-06-02T20:02:29.885568,15.34394418,.00012447,53.1588,26.3900,52.6449,307.4667,0,U,58549,999,13903,.11913868E-3,.365E-4,0
STARLINK-31056,2023-192V,2026-06-02T19:58:17.124960,15.30196040,.00010975,53.1605,27.0784,82.4735,277.6390,0,U,58550,999,13902,.98148479E-4,.2548E-4,0
STARLINK-30999,2023-192W,2026-06-02T19:00:48.220992,15.30194068,.00010646,53.1604,17.4803,105.0784,255.0334,0,U,58551,999,13915,.38587694E-4,.784E-5,0
STARLINK-31046,2023-192X,2026-06-02T20:23:42.048672,15.34390588,.00015696,53.1609,26.4774,102.3028,257.8150,0,U,58552,999,13903,.32957125E-4,.737E-5,0
HONGHU 2,2023-193C,2026-06-04T05:57:12.509280,15.30679401,.0040045,97.2793,145.8703,320.3287,39.5027,0,U,58555,999,10003,.1462426E-1,.4708E-2,0
YAOGAN-39 05A,2023-194A,2026-06-04T06:01:57.830592,15.23269500,.00064662,34.9994,138.7345,208.0718,151.9648,0,U,58557,999,13838,.34572579E-3,.8372E-4,0
YAOGAN-39 05B,2023-194B,2026-06-04T06:48:21.978144,15.17523404,.00104529,34.9907,161.6819,206.4977,153.5202,0,U,58558,999,13813,.22794249E-3,.4653E-4,0
YAOGAN-39 05C,2023-194C,2026-06-04T06:53:55.959072,15.17493648,.00134983,34.9905,161.6787,282.3986,77.5216,0,U,58559,999,13816,.23463522E-3,.4791E-4,0
ALISIO-1,2023-185M,2026-06-04T06:13:22.401120,15.16966541,.00063335,97.5369,228.6820,16.0760,344.0673,0,U,58562,999,13659,.21027505E-3,.4084E-4,0
QPS-SAR-5 (TSUKUYOMI-I),2023-196A,2026-06-04T05:56:02.960736,15.22286145,.00261313,42.0103,89.5757,198.9078,161.0788,0,U,58578,999,13627,.60922328E-3,.14236E-3,0
YAOGAN-41,2023-197A,2026-06-04T07:18:09.722016,1.00265957,.0014055,3.1526,312.9327,188.5145,343.9327,0,U,58582,999,919,0,-.351E-5,0
ARKTIKA-M 2,2023-198A,2026-06-01T19:23:46.713120,2.00592153,.68981271,63.2208,156.0807,267.4735,18.7853,0,U,58584,999,1801,0,.145E-5,0
STARLINK-31044,2023-200A,2026-05-31T23:08:08.537280,15.27557839,.00014976,43.0011,58.7965,280.2233,79.8450,0,U,58589,999,13634,.33942119E-4,.671E-5,0
STARLINK-31062,2023-200B,2026-06-01T22:00:54.988704,15.27572043,.00013337,43.0058,56.4856,274.9658,85.1042,0,U,58590,999,13645,.86958017E-4,.2131E-4,0
STARLINK-31096,2023-200D,2026-06-01T03:20:44.395008,15.32610536,.00121254,42.9979,57.5317,212.7786,147.2316,0,U,58592,999,13637,.20559901E-2,.66575E-3,0
STARLINK-31094,2023-200E,2026-06-01T03:11:44.493504,15.27580553,.00011801,43.0041,57.5108,262.5391,97.5327,0,U,58593,999,13637,.27287627E-4,.489E-5,0
STARLINK-31075,2023-200F,2026-06-01T18:23:42.522432,15.27571445,.00013226,43.0011,53.6556,298.5664,61.5054,0,U,58594,999,13647,.29643695E-4,.553E-5,0
STARLINK-30857,2023-200G,2026-06-01T23:46:53.382432,15.27554912,.00018041,43.0041,52.7648,282.9586,77.1064,0,U,58595,999,13650,-.25987308E-3,-.7401E-4,0
STARLINK-31059,2023-200H,2026-06-01T17:28:42.226464,15.27574557,.00004117,42.9981,257.5237,231.3271,128.7544,0,U,58596,999,13830,.9546192E-4,.2366E-4,0
STARLINK-31087,2023-200J,2026-06-02T22:44:04.648128,15.27576440,.00024145,43.0040,47.0361,195.9041,164.1735,0,U,58597,999,13654,.70326771E-4,.1673E-4,0
STARLINK-31079,2023-200K,2026-06-04T00:00:02.000160,15.65494502,.00348644,42.9773,355.5919,267.4835,33.8414,0,U,58598,999,595,.95541888E-3,.102494E-2,0
STARLINK-31052,2023-200M,2026-06-01T23:17:16.888704,15.27565043,.00017606,43.0090,52.6102,270.4305,89.6345,0,U,58600,999,13650,.14751663E-3,.3797E-4,0
STARLINK-31074,2023-200N,2026-06-01T23:22:49.717920,15.27568555,.00013535,43.0081,52.6405,250.8761,109.1944,0,U,58601,999,13650,.14818859E-3,.3816E-4,0
STARLINK-31071,2023-200P,2026-06-02T13:58:57.885888,15.27583337,.00011361,42.9983,249.2453,187.6242,172.4592,0,U,58602,999,13847,.14065041E-3,.3611E-4,0
STARLINK-31080,2023-200Q,2026-06-01T03:04:20.168544,15.27580033,.00011102,43.0056,57.4595,263.8258,96.2467,0,U,58603,999,13618,.69639919E-4,.1655E-4,0
STARLINK-31088,2023-200R,2026-06-01T03:08:02.023872,15.27588731,.000161,43.0036,57.4709,274.7965,85.2703,0,U,58604,999,13637,.12104107E-3,.3071E-4,0
STARLINK-31038,2023-200S,2026-06-01T22:43:36.384960,15.33359360,.00076456,43.0002,51.5669,219.1865,140.8436,0,U,58605,999,13651,.25801614E-2,.85727E-3,0
